1 45707U 20035BC  23362.75791900  .00009209  00000-0  63624-3 0  9991
2 45707  53.0543  36.6288 0001473  83.5272 276.5884 15.06404394198284
1 45707U 20035BC  23362.75791900  .00009209  00000-0  63624-3 0  9991
2 45707  53.0543  36.6288 0001473  83.5272 276.5884 15.06404394197878
1 45707U 20035BC  23363.35503438  .00017578  00000-0  11952-2 0  9999
2 45707  53.0540  33.9481 0001653  77.6211 282.4963 15.06426029198376
1 45707U 20035BC  23363.35503438  .00017578  00000-0  11952-2 0  9999
2 45707  53.0540  33.9481 0001653  77.6211 282.4963 15.06426029197960
1 45707U 20035BC  23364.35023394  .00001728  00000-0  13489-3 0  9996
2 45707  53.0550  29.4788 0001789 128.3105 231.8045 15.06404737198521
1 45707U 20035BC  23364.35023394  .00001728  00000-0  13489-3 0  9996
2 45707  53.0550  29.4788 0001789 128.3105 231.8045 15.06404737198116
